{
    "links": {
        "self": "http://www.neowsapp.com/rest/v1/neo/3771599?api_key=iIulBulltgU6a56xZRHN4H3l9WmuAYTsLGpBGhQ2"
    },
    "id": "3771599",
    "neo_reference_id": "3771599",
    "name": "(2017 EA23)",
    "designation": "2017 EA23",
    "nasa_jpl_url": "http://ssd.jpl.nasa.gov/sbdb.cgi?sstr=3771599",
    "absolute_magnitude_h": 26.107,
    "estimated_diameter": {
        "kilometers": {
            "estimated_diameter_min": 0.0159644873,
            "estimated_diameter_max": 0.0356976789
        },
        "meters": {
            "estimated_diameter_min": 15.9644873326,
            "estimated_diameter_max": 35.6976789017
        },
        "miles": {
            "estimated_diameter_min": 0.0099198695,
            "estimated_diameter_max": 0.0221815024
        },
        "feet": {
            "estimated_diameter_min": 52.3769286204,
            "estimated_diameter_max": 117.1183728479
        }
    },
    "is_potentially_hazardous_asteroid": false,
    "close_approach_data": [
        {
            "close_approach_date": "2017-03-06",
            "close_approach_date_full": "2017-Mar-06 07:50",
            "epoch_date_close_approach": 1488786600000,
            "relative_velocity": {
                "kilometers_per_second": "15.0866326171",
                "kilometers_per_hour": "54311.8774216309",
                "miles_per_hour": "33747.2885012351"
            },
            "miss_distance": {
                "astronomical": "0.017790635",
                "lunar": "6.920557015",
                "kilometers": "2661441.10194745",
                "miles": "1653742.81567681"
            },
            "orbiting_body": "Earth"
        },
        {
            "close_approach_date": "2017-04-08",
            "close_approach_date_full": "2017-Apr-08 02:12",
            "epoch_date_close_approach": 1491617520000,
            "relative_velocity": {
                "kilometers_per_second": "14.4285995412",
                "kilometers_per_hour": "51942.9583481864",
                "miles_per_hour": "32275.3343136273"
            },
            "miss_distance": {
                "astronomical": "0.0569545867",
                "lunar": "22.1553342263",
                "kilometers": "8520284.857050329",
                "miles": "5294259.5120953802"
            },
            "orbiting_body": "Venus"
        }
    ],
    "orbital_data": {
        "orbit_id": "2",
        "orbit_determination_date": "2017-04-06 08:19:32",
        "first_observation_date": "2017-03-02",
        "last_observation_date": "2017-03-04",
        "data_arc_in_days": 2,
        "observations_used": 12,
        "orbit_uncertainty": "9",
        "minimum_orbit_intersection": ".00384728",
        "jupiter_tisserand_invariant": "5.230",
        "epoch_osculation": "2457815.5",
        "eccentricity": ".4642488492490365",
        "semi_major_axis": "1.18668610780278",
        "inclination": "1.787492008345332",
        "ascending_node_longitude": "9.946827152803658",
        "orbital_period": "472.174157650452",
        "perihelion_distance": ".6357684478355214",
        "perihelion_argument": "253.912538987394",
        "aphelion_distance": "1.737603767770039",
        "perihelion_time": "2457876.901313502874",
        "mean_anomaly": "313.1857631281073",
        "mean_motion": ".762430544253771",
        "equinox": "J2000",
        "orbit_class": {
            "orbit_class_type": "APO",
            "orbit_class_description": "Near-Earth asteroid orbits which cross the Earth’s orbit similar to that of 1862 Apollo",
            "orbit_class_range": "a (semi-major axis) > 1.0 AU; q (perihelion) < 1.017 AU"
        }
    },
    "is_sentry_object": false
}